IRIDIUM 921             
1 24873U 97034E   25034.40362244  .00898595  39881-3  15799-2 0  9995
2 24873  86.3594 170.3068 0006622 301.0705 117.1877 16.02103539511445
IRIDIUM 26              
1 24903U 97043A   25036.37599994  .00001034  00000+0  34274-3 0  9992
2 24903  86.4018 165.9500 0002092  99.9252 260.2181 14.36957500438287
IRIDIUM 22              
1 24907U 97043E   25035.77965821  .00000920  00000+0  31155-3 0  9993
2 24907  86.4020 169.6196 0002053  93.3720 266.7711 14.35790251437760
DUMMY MASS 1            
1 24925U 97048A   25036.17573039  .00001090  00000+0  11938-3 0  9995
2 24925  86.3370 196.3033 0004471 247.5521 112.5231 14.86775701485758
DUMMY MASS 2            
1 24926U 97048B   25035.98130324  .00001024  00000+0  11259-3 0  9993
2 24926  86.3368 197.9750 0005188 266.2565  93.8066 14.86528569485509
IRIDIUM 29              
1 24944U 97051A   25036.47521558  .00001114  00000+0  37509-3 0  9991
2 24944  86.3980 199.0771 0001950  85.8014 274.3406 14.36262060434584
IRIDIUM 33              
1 24946U 97051C   25035.89646486  .00000700  00000+0  24011-3 0  9990
2 24946  86.3897 198.5702 0009081 139.3261 220.8615 14.34750540433785
IRIDIUM 28              
1 24948U 97051E   25036.46430367  .00000991  00000+0  32650-3 0  9995
2 24948  86.3990 196.6744 0002236 102.0086 258.1362 14.37198849434991
